[{"OBJECT_NAME":"KUIPER-00066","OBJECT_ID":"2025-134AC","EPOCH":"2026-03-09T13:42:38.621376","MEAN_MOTION":15.2300073,"ECCENTRICITY":0.0001383,"INCLINATION":51.8707,"RA_OF_ASC_NODE":184.5707,"ARG_OF_PERICENTER":335.7744,"MEAN_ANOMALY":24.3171,"EPHEMERIS_TYPE":0,"CLASSIFICATION_TYPE":"U","NORAD_CAT_ID":64526,"ELEMENT_SET_NO":999,"REV_AT_EPOCH":4074,"BSTAR":0.00081918,"MEAN_MOTION_DOT":0.00019245,"MEAN_MOTION_DDOT":0},{"OBJECT_NAME":"NASBSAT-2","OBJECT_ID":"2025-313AP","EPOCH":"2026-03-09T21:29:44.393280","MEAN_MOTION":15.22323671,"ECCENTRICITY":0.00101247,"INCLINATION":97.3984,"RA_OF_ASC_NODE":145.2202,"ARG_OF_PERICENTER":356.9966,"MEAN_ANOMALY":3.1208,"EPHEMERIS_TYPE":0,"CLASSIFICATION_TYPE":"U","NORAD_CAT_ID":67285,"ELEMENT_SET_NO":999,"REV_AT_EPOCH":1085,"BSTAR":0.00041175277,"MEAN_MOTION_DOT":9.438e-5,"MEAN_MOTION_DDOT":0}]
